NORAD_CAT_ID,OBJECT_NAME,OBJECT_TYPE,EPOCH,MEAN_MOTION,ECCENTRICITY,INCLINATION,RA_OF_ASC_NODE,ARG_OF_PERICENTER,MEAN_ANOMALY,BSTAR,MEAN_MOTION_DOT,MEAN_MOTION_DDOT,TLE_LINE0,TLE_LINE1,TLE_LINE2,SEMIMAJOR_AXIS,PERIOD,APOGEE,PERIGEE,DECAYED
55270.0,STARLINK-5301,PAYLOAD,2024-01-11 22:23:31,14.98345983,0.0002669,69.9981,230.8242,264.766,95.3194,0.00032223,3.755e-05,0.0,0 STARLINK-5301,1 55270U 23010B   24011.93299798  .00003755  00000-0  32223-3 0  9994,2 55270  69.9981 230.8242 0002669 264.7660  95.3194 14.98345983 54787,6950.143,96.106,573.863,570.153,0.0
55270.0,STARLINK-5301,PAYLOAD,2024-01-11 23:59:38,14.98348296,0.0002651,69.9982,230.6561,264.1625,95.9232,0.0003561,4.16e-05,0.0,0 STARLINK-5301,1 55270U 23010B   24011.99975637  .00004160  00000-0  35610-3 0  9997,2 55270  69.9982 230.6561 0002651 264.1625  95.9232 14.98348296 54796,6950.136,96.106,573.844,570.159,0.0
55270.0,STARLINK-5301,PAYLOAD,2024-01-12 19:13:16,14.9833922,0.0002782,69.9988,228.6352,259.7523,100.3322,-1.0629e-05,-2.2e-06,0.0,0 STARLINK-5301,1 55270U 23010B   24012.80087979 -.00000220  00000-0 -10629-4 0  9990,2 55270  69.9988 228.6352 0002782 259.7523 100.3322 14.98339220 54607,6950.164,96.106,573.963,570.096,0.0
55270.0,STARLINK-5301,PAYLOAD,2024-01-12 22:25:32,14.98333772,0.0002435,69.9996,228.2999,260.2205,99.8679,-9.9032e-05,-1.274e-05,0.0,0 STARLINK-5301,1 55270U 23010B   24012.93440247 -.00001274  00000-0 -99032-4 0  9990,2 55270  69.9996 228.2999 0002435 260.2205  99.8679 14.98333772 54937,6950.181,96.107,573.739,570.354,0.0
55270.0,STARLINK-5301,PAYLOAD,2024-01-13 00:01:40,14.98332827,0.0002517,69.9989,228.1313,266.4652,93.6219,-1.6339e-05,-2.88e-06,0.0,0 STARLINK-5301,1 55270U 23010B   24013.00116727 -.00000288  00000-0 -16339-4 0  9995,2 55270  69.9989 228.1313 0002517 266.4652  93.6219 14.98332827 54632,6950.184,96.107,573.799,570.3,0.0
55270.0,STARLINK-5301,PAYLOAD,2024-01-13 14:26:52,14.98343176,0.0002812,69.9984,226.6164,262.6166,97.4673,-3.0853e-05,-4.61e-06,0.0,0 STARLINK-5301,1 55270U 23010B   24013.60199701 -.00000461  00000-0 -30853-4 0  9994,2 55270  69.9984 226.6164 0002812 262.6166  97.4673 14.98343176 55030,6950.152,96.106,573.972,570.063,0.0
55270.0,STARLINK-5301,PAYLOAD,2024-01-13 19:15:16,14.98343817,0.0002621,69.9992,226.1114,259.9341,100.1522,-3.1394e-06,-1.3e-06,0.0,0 STARLINK-5301,1 55270U 23010B   24013.80227464 -.00000130  00000-0 -31394-5 0  9999,2 55270  69.9992 226.1114 0002621 259.9341 100.1522 14.98343817 54756,6950.15,96.106,573.837,570.194,0.0
55270.0,STARLINK-5301,PAYLOAD,2024-01-14 14:28:53,14.98333616,0.0002657,69.9995,224.0914,269.0516,91.0339,0.00014055,1.585e-05,0.0,0 STARLINK-5301,1 55270U 23010B   24014.60339472  .00001585  00000-0  14055-3 0  9997,2 55270  69.9995 224.0914 0002657 269.0516  91.0339 14.98333616 55187,6950.182,96.107,573.893,570.2,0.0
55270.0,STARLINK-5301,PAYLOAD,2024-01-14 19:17:17,14.98334223,0.0002664,69.9997,223.5866,269.6042,90.4812,0.00013969,1.574e-05,0.0,0 STARLINK-5301,1 55270U 23010B   24014.80367420  .00001574  00000-0  13969-3 0  9994,2 55270  69.9997 223.5866 0002664 269.6042  90.4812 14.98334223 54900,6950.18,96.107,573.896,570.193,0.0
55270.0,STARLINK-5301,PAYLOAD,2024-01-14 22:29:33,14.98334454,0.0002675,69.9996,223.25,269.7341,90.3511,0.00013605,1.531e-05,0.0,0 STARLINK-5301,1 55270U 23010B   24014.93719405  .00001531  00000-0  13605-3 0  9992,2 55270  69.9996 223.2500 0002675 269.7341  90.3511 14.98334454 55234,6950.179,96.107,573.903,570.185,0.0
55270.0,STARLINK-5301,PAYLOAD,2024-01-15 14:30:54,14.98334631,0.0002524,70.0004,221.5671,271.7078,88.3792,5.691e-05,5.86e-06,0.0,0 STARLINK-5301,1 55270U 23010B   24015.60479430  .00000586  00000-0  56910-4 0  9994,2 55270  70.0004 221.5671 0002524 271.7078  88.3792 14.98334631 55336,6950.179,96.107,573.798,570.289,0.0
55270.0,STARLINK-5301,PAYLOAD,2024-01-15 19:19:18,14.98333097,0.000257,70.0002,221.0622,270.891,89.1954,2.2658e-05,1.77e-06,0.0,0 STARLINK-5301,1 55270U 23010B   24015.80507491  .00000177  00000-0  22658-4 0  9993,2 55270  70.0002 221.0622 0002570 270.8910  89.1954 14.98333097 55054,6950.183,96.107,573.835,570.262,0.0
55270.0,STARLINK-5301,PAYLOAD,2024-01-15 20:55:26,14.9833198,0.0002592,70.0002,220.894,271.1387,88.9475,4.7447e-06,-3.6e-07,0.0,0 STARLINK-5301,1 55270U 23010B   24015.87183567 -.00000036  00000-0  47447-5 0  9993,2 55270  70.0002 220.8940 0002592 271.1387  88.9475 14.98331980 55379,6950.187,96.107,573.853,570.25,0.0
55270.0,STARLINK-5301,PAYLOAD,2024-01-16 14:32:54,14.98334313,0.0002683,69.9998,219.0426,270.1896,89.8955,6.7033e-05,7.07e-06,0.0,0 STARLINK-5301,1 55270U 23010B   24016.60619129  .00000707  00000-0  67033-4 0  9999,2 55270  69.9998 219.0426 0002683 270.1896  89.8955 14.98334313 55482,6950.18,96.107,573.909,570.18,0.0
55270.0,STARLINK-5301,PAYLOAD,2024-01-16 19:21:19,14.98334197,0.0002689,69.9998,218.5376,269.2401,90.845,6.0391e-05,6.28e-06,0.0,0 STARLINK-5301,1 55270U 23010B   24016.80647092  .00000628  00000-0  60391-4 0  9993,2 55270  69.9998 218.5376 0002689 269.2401  90.8450 14.98334197 55209,6950.18,96.107,573.914,570.176,0.0
55270.0,STARLINK-5301,PAYLOAD,2024-01-16 22:33:35,14.98334791,0.0002674,69.9998,218.2009,268.7181,91.3671,6.4598e-05,6.78e-06,0.0,0 STARLINK-5301,1 55270U 23010B   24016.93998993  .00000678  00000-0  64598-4 0  9994,2 55270  69.9998 218.2009 0002674 268.7181  91.3671 14.98334791 55539,6950.178,96.107,573.902,570.185,0.0
55270.0,STARLINK-5301,PAYLOAD,2024-01-17 14:34:55,14.98330623,0.0002653,69.9998,216.5177,266.9887,93.0968,8.4849e-05,9.2e-06,0.0,0 STARLINK-5301,1 55270U 23010B   24017.60759168  .00000920  00000-0  84849-4 0  9999,2 55270  69.9998 216.5177 0002653 266.9887  93.0968 14.98330623 55635,6950.191,96.107,573.9,570.212,0.0
55270.0,STARLINK-5301,PAYLOAD,2024-01-17 19:23:20,14.98330415,0.0002676,69.9997,216.0127,266.9715,93.1138,7.5811e-05,8.12e-06,0.0,0 STARLINK-5301,1 55270U 23010B   24017.80787204  .00000812  00000-0  75811-4 0  9992,2 55270  69.9997 216.0127 0002676 266.9715  93.1138 14.98330415 55357,6950.192,96.107,573.916,570.197,0.0
55270.0,STARLINK-5301,PAYLOAD,2024-01-17 22:35:36,14.98330884,0.0002668,69.9997,215.6761,266.9033,93.1821,7.7683e-05,8.34e-06,0.0,0 STARLINK-5301,1 55270U 23010B   24017.94139154  .00000834  00000-0  77683-4 0  9995,2 55270  69.9997 215.6761 0002668 266.9033  93.1821 14.98330884 55685,6950.19,96.107,573.909,570.201,0.0
55270.0,STARLINK-5301,PAYLOAD,2024-01-18 14:36:56,14.98330835,0.0002552,70.0,213.9934,264.3826,95.7042,3.1075e-05,2.78e-06,0.0,0 STARLINK-5301,1 55270U 23010B   24018.60899275  .00000278  00000-0  31075-4 0  9993,2 55270  70.0000 213.9934 0002552 264.3826  95.7042 14.98330835 55780,6950.19,96.107,573.829,570.282,0.0
55270.0,STARLINK-5301,PAYLOAD,2024-01-18 19:25:21,14.98329216,0.0002611,69.9999,213.4882,265.3928,94.6933,5.1983e-06,-3.1e-07,0.0,0 STARLINK-5301,1 55270U 23010B   24018.80927435 -.00000031  00000-0  51983-5 0  9994,2 55270  69.9999 213.4882 0002611 265.3928  94.6933 14.98329216 55509,6950.195,96.107,573.875,570.246,0.0
55270.0,STARLINK-5301,PAYLOAD,2024-01-18 21:01:29,14.98328448,0.0002631,69.9998,213.3198,266.1022,93.9836,-6.4251e-06,-1.7e-06,0.0,0 STARLINK-5301,1 55270U 23010B   24018.87603508 -.00000170  00000-0 -64251-5 0  9990,2 55270  69.9998 213.3198 0002631 266.1022  93.9836 14.98328448 55828,6950.198,96.107,573.891,570.234,0.0
55270.0,STARLINK-5301,PAYLOAD,2024-01-19 14:38:57,14.98332467,0.0002764,69.9995,211.4679,269.3027,90.7815,6.4203e-05,6.73e-06,0.0,0 STARLINK-5301,1 55270U 23010B   24019.61039058  .00000673  00000-0  64203-4 0  9998,2 55270  69.9995 211.4679 0002764 269.3027  90.7815 14.98332467 55935,6950.185,96.107,573.971,570.129,0.0
55270.0,STARLINK-5301,PAYLOAD,2024-01-19 19:27:21,14.98333083,0.0002756,69.9997,210.963,269.7059,90.3784,6.9933e-05,7.42e-06,0.0,0 STARLINK-5301,1 55270U 23010B   24019.81066990  .00000742  00000-0  69933-4 0  9997,2 55270  69.9997 210.9630 0002756 269.7059  90.3784 14.98333083 55653,6950.183,96.107,573.964,570.133,0.0
55270.0,STARLINK-5301,PAYLOAD,2024-01-19 22:39:37,14.98333841,0.0002744,69.9997,210.6263,269.5125,90.5719,7.6793e-05,8.23e-06,0.0,0 STARLINK-5301,1 55270U 23010B   24019.94418896  .00000823  00000-0  76793-4 0  9999,2 55270  69.9997 210.6263 0002744 269.5125  90.5719 14.98333841 55989,6950.181,96.107,573.953,570.139,0.0
55270.0,STARLINK-5301,PAYLOAD,2024-01-20 14:40:58,14.98328717,0.00027,69.9999,208.9433,268.8515,91.2335,7.6539e-05,8.2e-06,0.0,0 STARLINK-5301,1 55270U 23010B   24020.61179260  .00000820  00000-0  76539-4 0  9999,2 55270  69.9999 208.9433 0002700 268.8515  91.2335 14.98328717 56087,6950.197,96.107,573.938,570.185,0.0
55270.0,STARLINK-5301,PAYLOAD,2024-01-20 19:29:23,14.98329433,0.0002684,70.0,208.4384,268.8632,91.2219,8.2211e-05,8.88e-06,0.0,0 STARLINK-5301,1 55270U 23010B   24020.81207228  .00000888  00000-0  82211-4 0  9995,2 55270  70.0000 208.4384 0002684 268.8632  91.2219 14.98329433 55800,6950.195,96.107,573.925,570.194,0.0
55270.0,STARLINK-5301,PAYLOAD,2024-01-20 22:41:39,14.9832896,0.0002691,70.0,208.1017,269.1478,90.9373,7.2996e-05,7.78e-06,0.0,0 STARLINK-5301,1 55270U 23010B   24020.94559286  .00000778  00000-0  72996-4 0  9990,2 55270  70.0000 208.1017 0002691 269.1478  90.9373 14.98328960 56138,6950.196,96.107,573.931,570.191,0.0
55270.0,STARLINK-5301,PAYLOAD,2024-01-21 19:31:23,14.98336869,0.0002698,70.0001,205.9139,268.5798,91.5052,7.9035e-05,8.5e-06,0.0,0 STARLINK-5301,1 55270U 23010B   24021.81346611  .00000850  00000-0  79035-4 0  9995,2 55270  70.0001 205.9139 0002698 268.5798  91.5052 14.98336869 55951,6950.172,96.107,573.912,570.161,0.0
55270.0,STARLINK-5301,PAYLOAD,2024-01-21 22:43:39,14.98337022,0.0002699,70.0001,205.5771,268.8966,91.1884,7.5413e-05,8.07e-06,0.0,0 STARLINK-5301,1 55270U 23010B   24021.94698526  .00000807  00000-0  75413-4 0  9992,2 55270  70.0001 205.5771 0002699 268.8966  91.1884 14.98337022 56288,6950.171,96.107,573.912,570.16,0.0
